STARLINK-1334_new
1 15556C 20025AB  21326.15898961  .00003463  00000-0  23209-3 0  3264
2 15556  53.0541 288.0372 0001782  60.4055  59.6451 15.06385277    18
STARLINK-1334_old
1 25556C 20025AB  21325.08331858 -.00001317  00000-0 -88240-4 0  3256
2 25556  53.0545 292.8658 0001845  60.9254 342.4516 15.06408275    17
